[
{
"CCSDS_OMM_VERS": "2.0",
"COMMENT": "GENERATED VIA SPACE-TRACK.ORG API",
"CREATION_DATE": "2025-03-20T03:31:02",
"ORIGINATOR": "18 SPCS",
"OBJECT_NAME": "BEIDOU 3M4",
"OBJECT_ID": "2018-003B",
"CENTER_NAME": "EARTH",
"REF_FRAME": "TEME",
"TIME_SYSTEM": "UTC",
"MEAN_ELEMENT_THEORY": "SGP4",
"EPOCH": "2025-03-19T11:55:00.249888",
"MEAN_MOTION": "1.86231072",
"ECCENTRICITY": "0.00031120",
"INCLINATION": "54.7152",
"RA_OF_ASC_NODE": "318.1055",
"ARG_OF_PERICENTER": "286.1486",
"MEAN_ANOMALY": "73.8672",
"EPHEMERIS_TYPE": "0",
"CLASSIFICATION_TYPE": "U",
"NORAD_CAT_ID": "43108",
"ELEMENT_SET_NO": "999",
"REV_AT_EPOCH": "4889",
"BSTAR": "0.00000000000000",
"MEAN_MOTION_DOT": "-0.00000062",
"MEAN_MOTION_DDOT": "0.0000000000000",
"SEMIMAJOR_AXIS": "27906.181",
"PERIOD": "773.233",
"APOAPSIS": "21536.731",
"PERIAPSIS": "21519.362",
"OBJECT_TYPE": "PAYLOAD",
"RCS_SIZE": "LARGE",
"COUNTRY_CODE": "PRC",
"LAUNCH_DATE": "2018-01-11",
"SITE": "XSC",
"DECAY_DATE": null,
"FILE": "4674434",
"GP_ID": "283537051",
"TLE_LINE0": "0 BEIDOU 3M4",
"TLE_LINE1": "1 43108U 18003B   25078.49653067 -.00000062  00000-0  00000-0 0  9999",
"TLE_LINE2": "2 43108  54.7152 318.1055 0003112 286.1486  73.8672  1.86231072 48899"
},
{
"CCSDS_OMM_VERS": "2.0",
"COMMENT": "GENERATED VIA SPACE-TRACK.ORG API",
"CREATION_DATE": "2025-03-19T17:43:14",
"ORIGINATOR": "18 SPCS",
"OBJECT_NAME": "BEIDOU 7",
"OBJECT_ID": "2010-068A",
"CENTER_NAME": "EARTH",
"REF_FRAME": "TEME",
"TIME_SYSTEM": "UTC",
"MEAN_ELEMENT_THEORY": "SGP4",
"EPOCH": "2025-03-19T11:46:40.562400",
"MEAN_MOTION": "1.00264566",
"ECCENTRICITY": "0.00391380",
"INCLINATION": "48.3713",
"RA_OF_ASC_NODE": "277.4453",
"ARG_OF_PERICENTER": "211.5998",
"MEAN_ANOMALY": "332.6718",
"EPHEMERIS_TYPE": "0",
"CLASSIFICATION_TYPE": "U",
"NORAD_CAT_ID": "37256",
"ELEMENT_SET_NO": "999",
"REV_AT_EPOCH": "5223",
"BSTAR": "0.00000000000000",
"MEAN_MOTION_DOT": "-0.00000169",
"MEAN_MOTION_DDOT": "0.0000000000000",
"SEMIMAJOR_AXIS": "42166.756",
"PERIOD": "1436.200",
"APOAPSIS": "35953.653",
"PERIAPSIS": "35623.589",
"OBJECT_TYPE": "PAYLOAD",
"RCS_SIZE": "LARGE",
"COUNTRY_CODE": "PRC",
"LAUNCH_DATE": "2010-12-17",
"SITE": "XSC",
"DECAY_DATE": null,
"FILE": "4674121",
"GP_ID": "283497194",
"TLE_LINE0": "0 BEIDOU 7",
"TLE_LINE1": "1 37256U 10068A   25078.49074725 -.00000169  00000-0  00000-0 0  9995",
"TLE_LINE2": "2 37256  48.3713 277.4453 0039138 211.5998 332.6718  1.00264566 52234"
},
{
"CCSDS_OMM_VERS": "2.0",
"COMMENT": "GENERATED VIA SPACE-TRACK.ORG API",
"CREATION_DATE": "2025-03-20T19:29:49",
"ORIGINATOR": "18 SPCS",
"OBJECT_NAME": "BEIDOU 3M23",
"OBJECT_ID": "2019-061A",
"CENTER_NAME": "EARTH",
"REF_FRAME": "TEME",
"TIME_SYSTEM": "UTC",
"MEAN_ELEMENT_THEORY": "SGP4",
"EPOCH": "2025-03-19T10:35:44.099232",
"MEAN_MOTION": "1.86229066",
"ECCENTRICITY": "0.00078620",
"INCLINATION": "54.4174",
"RA_OF_ASC_NODE": "198.0652",
"ARG_OF_PERICENTER": "11.0949",
"MEAN_ANOMALY": "348.9109",
"EPHEMERIS_TYPE": "0",
"CLASSIFICATION_TYPE": "U",
"NORAD_CAT_ID": "44542",
"ELEMENT_SET_NO": "999",
"REV_AT_EPOCH": "3732",
"BSTAR": "0.00000000000000",
"MEAN_MOTION_DOT": "0.00000024",
"MEAN_MOTION_DDOT": "0.0000000000000",
"SEMIMAJOR_AXIS": "27906.382",
"PERIOD": "773.241",
"APOAPSIS": "21550.187",
"PERIAPSIS": "21506.307",
"OBJECT_TYPE": "PAYLOAD",
"RCS_SIZE": "LARGE",
"COUNTRY_CODE": "PRC",
"LAUNCH_DATE": "2019-09-22",
"SITE": "XSC",
"DECAY_DATE": null,
"FILE": "4675094",
"GP_ID": "283583370",
"TLE_LINE0": "0 BEIDOU 3M23",
"TLE_LINE1": "1 44542U 19061A   25078.44148263  .00000024  00000-0  00000-0 0  9996",
"TLE_LINE2": "2 44542  54.4174 198.0652 0007862  11.0949 348.9109  1.86229066 37323"
},
{
"CCSDS_OMM_VERS": "2.0",
"COMMENT": "GENERATED VIA SPACE-TRACK.ORG API",
"CREATION_DATE": "2025-03-19T17:43:14",
"ORIGINATOR": "18 SPCS",
"OBJECT_NAME": "BEIDOU 6",
"OBJECT_ID": "2010-057A",
"CENTER_NAME": "EARTH",
"REF_FRAME": "TEME",
"TIME_SYSTEM": "UTC",
"MEAN_ELEMENT_THEORY": "SGP4",
"EPOCH": "2025-03-19T09:58:45.932160",
"MEAN_MOTION": "1.00272090",
"ECCENTRICITY": "0.00066530",
"INCLINATION": "2.5169",
"RA_OF_ASC_NODE": "70.4350",
"ARG_OF_PERICENTER": "207.8404",
"MEAN_ANOMALY": "208.6277",
"EPHEMERIS_TYPE": "0",
"CLASSIFICATION_TYPE": "U",
"NORAD_CAT_ID": "37210",
"ELEMENT_SET_NO": "999",
"REV_AT_EPOCH": "5273",
"BSTAR": "0.00000000000000",
"MEAN_MOTION_DOT": "-0.00000104",
"MEAN_MOTION_DDOT": "0.0000000000000",
"SEMIMAJOR_AXIS": "42164.646",
"PERIOD": "1436.093",
"APOAPSIS": "35814.564",
"PERIAPSIS": "35758.459",
"OBJECT_TYPE": "PAYLOAD",
"RCS_SIZE": "LARGE",
"COUNTRY_CODE": "PRC",
"LAUNCH_DATE": "2010-10-31",
"SITE": "XSC",
"DECAY_DATE": null,
"FILE": "4674121",
"GP_ID": "283496684",
"TLE_LINE0": "0 BEIDOU 6",
"TLE_LINE1": "1 37210U 10057A   25078.41580940 -.00000104  00000-0  00000-0 0  9995",
"TLE_LINE2": "2 37210   2.5169  70.4350 0006653 207.8404 208.6277  1.00272090 52732"
},
{
"CCSDS_OMM_VERS": "2.0",
"COMMENT": "GENERATED VIA SPACE-TRACK.ORG API",
"CREATION_DATE": "2025-03-19T17:43:14",
"ORIGINATOR": "18 SPCS",
"OBJECT_NAME": "BEIDOU 3M2",
"OBJECT_ID": "2017-069B",
"CENTER_NAME": "EARTH",
"REF_FRAME": "TEME",
"TIME_SYSTEM": "UTC",
"MEAN_ELEMENT_THEORY": "SGP4",
"EPOCH": "2025-03-19T06:29:10.039776",
"MEAN_MOTION": "1.86231004",
"ECCENTRICITY": "0.00100110",
"INCLINATION": "56.2931",
"RA_OF_ASC_NODE": "78.1507",
"ARG_OF_PERICENTER": "324.0727",
"MEAN_ANOMALY": "35.8765",
"EPHEMERIS_TYPE": "0",
"CLASSIFICATION_TYPE": "U",
"NORAD_CAT_ID": "43002",
"ELEMENT_SET_NO": "999",
"REV_AT_EPOCH": "5012",
"BSTAR": "0.00000000000000",
"MEAN_MOTION_DOT": "0.00000002",
"MEAN_MOTION_DDOT": "0.0000000000000",
"SEMIMAJOR_AXIS": "27906.188",
"PERIOD": "773.233",
"APOAPSIS": "21555.990",
"PERIAPSIS": "21500.116",
"OBJECT_TYPE": "PAYLOAD",
"RCS_SIZE": "LARGE",
"COUNTRY_CODE": "PRC",
"LAUNCH_DATE": "2017-11-05",
"SITE": "XSC",
"DECAY_DATE": null,
"FILE": "4674121",
"GP_ID": "283500003",
"TLE_LINE0": "0 BEIDOU 3M2",
"TLE_LINE1": "1 43002U 17069B   25078.27025509  .00000002  00000-0  00000-0 0  9996",
"TLE_LINE2": "2 43002  56.2931  78.1507 0010011 324.0727  35.8765  1.86231004 50120"
},
{
"CCSDS_OMM_VERS": "2.0",
"COMMENT": "GENERATED VIA SPACE-TRACK.ORG API",
"CREATION_DATE": "2025-03-19T17:43:14",
"ORIGINATOR": "18 SPCS",
"OBJECT_NAME": "BEIDOU 3M15",
"OBJECT_ID": "2018-078A",
"CENTER_NAME": "EARTH",
"REF_FRAME": "TEME",
"TIME_SYSTEM": "UTC",
"MEAN_ELEMENT_THEORY": "SGP4",
"EPOCH": "2025-03-19T05:23:20.027904",
"MEAN_MOTION": "1.86232422",
"ECCENTRICITY": "0.00082470",
"INCLINATION": "54.4940",
"RA_OF_ASC_NODE": "315.8870",
"ARG_OF_PERICENTER": "23.5287",
"MEAN_ANOMALY": "336.5588",
"EPHEMERIS_TYPE": "0",
"CLASSIFICATION_TYPE": "U",
"NORAD_CAT_ID": "43647",
"ELEMENT_SET_NO": "999",
"REV_AT_EPOCH": "4368",
"BSTAR": "0.00000000000000",
"MEAN_MOTION_DOT": "-0.00000060",
"MEAN_MOTION_DDOT": "0.0000000000000",
"SEMIMAJOR_AXIS": "27906.047",
"PERIOD": "773.227",
"APOAPSIS": "21550.926",
"PERIAPSIS": "21504.897",
"OBJECT_TYPE": "PAYLOAD",
"RCS_SIZE": "LARGE",
"COUNTRY_CODE": "PRC",
"LAUNCH_DATE": "2018-10-15",
"SITE": "XSC",
"DECAY_DATE": null,
"FILE": "4674121",
"GP_ID": "283501185",
"TLE_LINE0": "0 BEIDOU 3M15",
"TLE_LINE1": "1 43647U 18078A   25078.22453736 -.00000060  00000-0  00000-0 0  9999",
"TLE_LINE2": "2 43647  54.4940 315.8870 0008247  23.5287 336.5588  1.86232422 43681"
},
{
"CCSDS_OMM_VERS": "2.0",
"COMMENT": "GENERATED VIA SPACE-TRACK.ORG API",
"CREATION_DATE": "2025-03-19T17:43:14",
"ORIGINATOR": "18 SPCS",
"OBJECT_NAME": "BEIDOU 3M7",
"OBJECT_ID": "2018-029A",
"CENTER_NAME": "EARTH",
"REF_FRAME": "TEME",
"TIME_SYSTEM": "UTC",
"MEAN_ELEMENT_THEORY": "SGP4",
"EPOCH": "2025-03-19T03:34:38.523936",
"MEAN_MOTION": "1.86232893",
"ECCENTRICITY": "0.00009810",
"INCLINATION": "54.5978",
"RA_OF_ASC_NODE": "315.8143",
"ARG_OF_PERICENTER": "3.5002",
"MEAN_ANOMALY": "356.5503",
"EPHEMERIS_TYPE": "0",
"CLASSIFICATION_TYPE": "U",
"NORAD_CAT_ID": "43245",
"ELEMENT_SET_NO": "999",
"REV_AT_EPOCH": "4742",
"BSTAR": "0.00000000000000",
"MEAN_MOTION_DOT": "-0.00000060",
"MEAN_MOTION_DDOT": "0.0000000000000",
"SEMIMAJOR_AXIS": "27905.999",
"PERIOD": "773.225",
"APOAPSIS": "21530.602",
"PERIAPSIS": "21525.127",
"OBJECT_TYPE": "PAYLOAD",
"RCS_SIZE": "LARGE",
"COUNTRY_CODE": "PRC",
"LAUNCH_DATE": "2018-03-29",
"SITE": "XSC",
"DECAY_DATE": null,
"FILE": "4674121",
"GP_ID": "283500555",
"TLE_LINE0": "0 BEIDOU 3M7",
"TLE_LINE1": "1 43245U 18029A   25078.14905699 -.00000060  00000-0  00000-0 0  9990",
"TLE_LINE2": "2 43245  54.5978 315.8143 0000981   3.5002 356.5503  1.86232893 47427"
},
{
"CCSDS_OMM_VERS": "2.0",
"COMMENT": "GENERATED VIA SPACE-TRACK.ORG API",
"CREATION_DATE": "2025-03-19T06:56:33",
"ORIGINATOR": "18 SPCS",
"OBJECT_NAME": "BEIDOU 3M11",
"OBJECT_ID": "2018-067A",
"CENTER_NAME": "EARTH",
"REF_FRAME": "TEME",
"TIME_SYSTEM": "UTC",
"MEAN_ELEMENT_THEORY": "SGP4",
"EPOCH": "2025-03-19T02:31:02.514144",
"MEAN_MOTION": "1.86227899",
"ECCENTRICITY": "0.00078330",
"INCLINATION": "54.1988",
"RA_OF_ASC_NODE": "196.4728",
"ARG_OF_PERICENTER": "34.1666",
"MEAN_ANOMALY": "325.8736",
"EPHEMERIS_TYPE": "0",
"CLASSIFICATION_TYPE": "U",
"NORAD_CAT_ID": "43602",
"ELEMENT_SET_NO": "999",
"REV_AT_EPOCH": "4464",
"BSTAR": "0.00000000000000",
"MEAN_MOTION_DOT": "0.00000023",
"MEAN_MOTION_DDOT": "0.0000000000000",
"SEMIMAJOR_AXIS": "27906.498",
"PERIOD": "773.246",
"APOAPSIS": "21550.223",
"PERIAPSIS": "21506.504",
"OBJECT_TYPE": "PAYLOAD",
"RCS_SIZE": "LARGE",
"COUNTRY_CODE": "PRC",
"LAUNCH_DATE": "2018-08-24",
"SITE": "XSC",
"DECAY_DATE": null,
"FILE": "4673667",
"GP_ID": "283474468",
"TLE_LINE0": "0 BEIDOU 3M11",
"TLE_LINE1": "1 43602U 18067A   25078.10489021  .00000023  00000-0  00000+0 0  9998",
"TLE_LINE2": "2 43602  54.1988 196.4728 0007833  34.1666 325.8736  1.86227899 44640"
}
]
